{"type": "FeatureCollection", "features": [ {"type": "Feature", "properties": {"norad_id": 40938, "name": "BEIDOU-3S IGSO-2S (C56)", "group": "gnss", "lat": -49.51283520703605, "lon": 167.92708464442458, "alt_km": 35743.584124947934, "timestamp": "2025-12-09T23:33:24.095815+00:00", "meta": {"OBJECT_NAME": "BEIDOU-3S IGSO-2S (C56)", "OBJECT_ID": "2015-053A", "EPOCH": "2025-12-07T17:59:38.817312", "MEAN_MOTION": 1.00270783, "ECCENTRICITY": 0.0060962, "INCLINATION": 49.5194, "RA_OF_ASC_NODE": 261.0646, "ARG_OF_PERICENTER": 188.6217, "MEAN_ANOMALY": 353.0712, "EPHEMERIS_TYPE": 0, "CLASSIFICATION_TYPE": "U", "NORAD_CAT_ID": 40938, "ELEMENT_SET_NO": 999, "REV_AT_EPOCH": 3743, "BSTAR": 0, "MEAN_MOTION_DOT": -1.42e-06, "MEAN_MOTION_DDOT": 0}, "tle": {"line1": "1 40938U 15053A   25341.74975483 -.00000142  00000+0  00000+0 0  9996", "line2": "2 40938  49.5194 261.0646 0060962 188.6217 353.0712  1.00270783 37435"}}, "geometry": {"type": "Point", "coordinates": [167.92708464442458, -49.51283520703605]}}, {"type": "Feature", "properties": {"norad_id": 41019, "name": "GPS BIIF-11 (PRN 10)", "group": "gnss", "lat": 48.99981174924369, "lon": 169.3799615833457, "alt_km": 20294.410806127435, "timestamp": "2025-12-09T23:33:24.095830+00:00", "meta": {"OBJECT_NAME": "GPS BIIF-11 (PRN 10)", "OBJECT_ID": "2015-062A", "EPOCH": "2025-12-09T07:40:39.423936", "MEAN_MOTION": 2.00567031, "ECCENTRICITY": 0.0110732, "INCLINATION": 56.8297, "RA_OF_ASC_NODE": 38.1346, "ARG_OF_PERICENTER": 229.8556, "MEAN_ANOMALY": 129.2222, "EPHEMERIS_TYPE": 0, "CLASSIFICATION_TYPE": "U", "NORAD_CAT_ID": 41019, "ELEMENT_SET_NO": 999, "REV_AT_EPOCH": 7402, "BSTAR": 0, "MEAN_MOTION_DOT": -8.3e-07, "MEAN_MOTION_DDOT": 0}, "tle": {"line1": "1 41019U 15062A   25343.31990074 -.00000083  00000+0  00000+0 0  9999", "line2": "2 41019  56.8297  38.1346 0110732 229.8556 129.2222  2.00567031 74027"}}, "geometry": {"type": "Point", "coordinates": [169.3799615833457, 48.99981174924369]}}, {"type": "Feature", "properties": {"norad_id": 41028, "name": "GSAT-15 (GAGAN/PRN 139)", "group": "gnss", "lat": 0.03748216425783205, "lon": 165.77814959695525, "alt_km": 35783.31487248416, "timestamp": "2025-12-09T23:33:24.095845+00:00", "meta": {"OBJECT_NAME": "GSAT-15 (GAGAN/PRN 139)", "OBJECT_ID": "2015-065A", "EPOCH": "2025-12-09T08:52:57.139392", "MEAN_MOTION": 1.00270497, "ECCENTRICITY": 0.00028585, "INCLINATION": 0.0453, "RA_OF_ASC_NODE": 97.7112, "ARG_OF_PERICENTER": 142.651, "MEAN_ANOMALY": 64.7387, "EPHEMERIS_TYPE": 0, "CLASSIFICATION_TYPE": "U", "NORAD_CAT_ID": 41028, "ELEMENT_SET_NO": 999, "REV_AT_EPOCH": 3689, "BSTAR": 0, "MEAN_MOTION_DOT": -2.55e-06, "MEAN_MOTION_DDOT": 0}, "tle": {"line1": "1 41028U 15065A   25343.37010578 -.00000255  00000+0  00000+0 0  9991", "line2": "2 41028   0.0453  97.7112 0002858 142.6510  64.7387  1.00270497 36899"}}, "geometry": {"type": "Point", "coordinates": [165.77814959695525, 0.03748216425783205]}}, {"type": "Feature", "properties": {"norad_id": 41174, "name": "GSAT0209 (GALILEO 12)", "group": "gnss", "lat": -51.46191177621837, "lon": -14.70918850424505, "alt_km": 23229.370729273538, "timestamp": "2025-12-09T23:33:24.095858+00:00", "meta": {"OBJECT_NAME": "GSAT0209 (GALILEO 12)", "OBJECT_ID": "2015-079A", "EPOCH": "2025-12-08T09:34:38.512704", "MEAN_MOTION": 1.70474355, "ECCENTRICITY": 0.00023972, "INCLINATION": 55.7104, "RA_OF_ASC_NODE": 106.5001, "ARG_OF_PERICENTER": 353.8677, "MEAN_ANOMALY": 6.0907, "EPHEMERIS_TYPE": 0, "CLASSIFICATION_TYPE": "U", "NORAD_CAT_ID": 41174, "ELEMENT_SET_NO": 999, "REV_AT_EPOCH": 6152, "BSTAR": 0, "MEAN_MOTION_DOT": 1e-07, "MEAN_MOTION_DDOT": 0}, "tle": {"line1": "1 41174U 15079A   25342.39905686  .00000010  00000+0  00000+0 0  9990", "line2": "2 41174  55.7104 106.5001 0002397 353.8677   6.0907  1.70474355 61526"}}, "geometry": {"type": "Point", "coordinates": [-14.70918850424505, -51.46191177621837]}}, {"type": "Feature", "properties": {"norad_id": 41175, "name": "GSAT0208 (GALILEO 11)", "group": "gnss", "lat": 47.886273247513024, "lon": -122.49978361275873, "alt_km": 23218.63384851685, "timestamp": "2025-12-09T23:33:24.095870+00:00", "meta": {"OBJECT_NAME": "GSAT0208 (GALILEO 11)", "OBJECT_ID": "2015-079B", "EPOCH": "2025-12-08T14:51:40.201056", "MEAN_MOTION": 1.70474231, "ECCENTRICITY": 0.0001859, "INCLINATION": 55.7088, "RA_OF_ASC_NODE": 106.4912, "ARG_OF_PERICENTER": 3.1611, "MEAN_ANOMALY": 356.8026, "EPHEMERIS_TYPE": 0, "CLASSIFICATION_TYPE": "U", "NORAD_CAT_ID": 41175, "ELEMENT_SET_NO": 999, "REV_AT_EPOCH": 6194, "BSTAR": 0, "MEAN_MOTION_DOT": 1e-07, "MEAN_MOTION_DDOT": 0}, "tle": {"line1": "1 41175U 15079B   25342.61921529  .00000010  00000+0  00000+0 0  9990", "line2": "2 41175  55.7088 106.4912 0001859   3.1611 356.8026  1.70474231 61940"}}, "geometry": {"type": "Point", "coordinates": [-122.49978361275873, 47.886273247513024]}}, {"type": "Feature", "properties": {"norad_id": 41241, "name": "IRNSS-1E", "group": "gnss", "lat": 27.575891011496527, "lon": -171.50262729649384, "alt_km": 35743.68081258265, "timestamp": "2025-12-09T23:33:24.095936+00:00", "meta": {"OBJECT_NAME": "IRNSS-1E", "OBJECT_ID": "2016-003A", "EPOCH": "2025-12-08T15:50:39.371424", "MEAN_MOTION": 1.00275569, "ECCENTRICITY": 0.00218793, "INCLINATION": 32.8166, "RA_OF_ASC_NODE": 62.5131, "ARG_OF_PERICENTER": 186.973, "MEAN_ANOMALY": 177.6191, "EPHEMERIS_TYPE": 0, "CLASSIFICATION_TYPE": "U", "NORAD_CAT_ID": 41241, "ELEMENT_SET_NO": 999, "REV_AT_EPOCH": 3617, "BSTAR": 0, "MEAN_MOTION_DOT": -3.11e-06, "MEAN_MOTION_DDOT": 0}, "tle": {"line1": "1 41241U 16003A   25342.66017791 -.00000311  00000+0  00000+0 0  9999", "line2": "2 41241  32.8166  62.5131 0021879 186.9730 177.6191  1.00275569 36173"}}, "geometry": {"type": "Point", "coordinates": [-171.50262729649384, 27.575891011496527]}}, {"type": "Feature", "properties": {"norad_id": 41328, "name": "GPS BIIF-12 (PRN 32)", "group": "gnss", "lat": 43.903167171954, "lon": 138.52921354696252, "alt_km": 20419.895012690755, "timestamp": "2025-12-09T23:33:24.095952+00:00", "meta": {"OBJECT_NAME": "GPS BIIF-12 (PRN 32)", "OBJECT_ID": "2016-007A", "EPOCH": "2025-12-09T09:39:21.792384", "MEAN_MOTION": 2.00560837, "ECCENTRICITY": 0.00919989, "INCLINATION": 55.4044, "RA_OF_ASC_NODE": 96.9895, "ARG_OF_PERICENTER": 243.4939, "MEAN_ANOMALY": 115.5474, "EPHEMERIS_TYPE": 0, "CLASSIFICATION_TYPE": "U", "NORAD_CAT_ID": 41328, "ELEMENT_SET_NO": 999, "REV_AT_EPOCH": 7203, "BSTAR": 0, "MEAN_MOTION_DOT": 4e-08, "MEAN_MOTION_DDOT": 0}, "tle": {"line1": "1 41328U 16007A   25343.40233556  .00000004  00000+0  00000+0 0  9999", "line2": "2 41328  55.4044  96.9895 0091998 243.4939 115.5474  2.00560837 72038"}}, "geometry": {"type": "Point", "coordinates": [138.52921354696252, 43.903167171954]}}, {"type": "Feature", "properties": {"norad_id": 41330, "name": "COSMOS 2514 (751)", "group": "gnss", "lat": -29.50829346463316, "lon": 154.69826560581757, "alt_km": 19102.969328097995, "timestamp": "2025-12-09T23:33:24.095966+00:00", "meta": {"OBJECT_NAME": "COSMOS 2514 (751)", "OBJECT_ID": "2016-008A", "EPOCH": "2025-12-09T05:37:58.803168", "MEAN_MOTION": 2.13102552, "ECCENTRICITY": 0.00122306, "INCLINATION": 65.1358, "RA_OF_ASC_NODE": 319.524, "ARG_OF_PERICENTER": 220.0477, "MEAN_ANOMALY": 139.8584, "EPHEMERIS_TYPE": 0, "CLASSIFICATION_TYPE": "U", "NORAD_CAT_ID": 41330, "ELEMENT_SET_NO": 999, "REV_AT_EPOCH": 7657, "BSTAR": 0, "MEAN_MOTION_DOT": -4.9e-07, "MEAN_MOTION_DDOT": 0}, "tle": {"line1": "1 41330U 16008A   25343.23470837 -.00000049  00000+0  00000+0 0  9999", "line2": "2 41330  65.1358 319.5240 0012230 220.0477 139.8584  2.13102552 76579"}}, "geometry": {"type": "Point", "coordinates": [154.69826560581757, -29.50829346463316]}}, {"type": "Feature", "properties": {"norad_id": 41384, "name": "IRNSS-1F", "group": "gnss", "lat": 0.29952033498691094, "lon": 104.64889758801911, "alt_km": 35881.246105177626, "timestamp": "2025-12-09T23:33:24.095978+00:00", "meta": {"OBJECT_NAME": "IRNSS-1F", "OBJECT_ID": "2016-015A", "EPOCH": "2025-12-09T13:43:36.797088", "MEAN_MOTION": 1.00270842, "ECCENTRICITY": 0.00224939, "INCLINATION": 4.8725, "RA_OF_ASC_NODE": 101.3785, "ARG_OF_PERICENTER": 180.267, "MEAN_ANOMALY": 35.1791, "EPHEMERIS_TYPE": 0, "CLASSIFICATION_TYPE": "U", "NORAD_CAT_ID": 41384, "ELEMENT_SET_NO": 999, "REV_AT_EPOCH": 3576, "BSTAR": 0, "MEAN_MOTION_DOT": 1.6e-06, "MEAN_MOTION_DDOT": 0}, "tle": {"line1": "1 41384U 16015A   25343.57195367  .00000160  00000+0  00000+0 0  9998", "line2": "2 41384   4.8725 101.3785 0022493 180.2670  35.1791  1.00270842 35768"}}, "geometry": {"type": "Point", "coordinates": [104.64889758801911, 0.29952033498691094]}}, {"type": "Feature", "properties": {"norad_id": 41434, "name": "BEIDOU-2 IGSO-6 (C13)", "group": "gnss", "lat": 45.53826483272608, "lon": -176.1181917753927, "alt_km": 35835.7289598328, "timestamp": "2025-12-09T23:33:24.095994+00:00", "meta": {"OBJECT_NAME": "BEIDOU-2 IGSO-6 (C13)", "OBJECT_ID": "2016-021A", "EPOCH": "2025-12-03T15:53:57.382080", "MEAN_MOTION": 1.00293531, "ECCENTRICITY": 0.00596341, "INCLINATION": 59.9536, "RA_OF_ASC_NODE": 39.991, "ARG_OF_PERICENTER": 228.541, "MEAN_ANOMALY": 135.1173, "EPHEMERIS_TYPE": 0, "CLASSIFICATION_TYPE": "U", "NORAD_CAT_ID": 41434, "ELEMENT_SET_NO": 999, "REV_AT_EPOCH": 3552, "BSTAR": 0, "MEAN_MOTION_DOT": -1.61e-06, "MEAN_MOTION_DDOT": 0}, "tle": {"line1": "1 41434U 16021A   25337.66246970 -.00000161  00000+0  00000+0 0  9993", "line2": "2 41434  59.9536  39.9910 0059634 228.5410 135.1173  1.00293531 35525"}}, "geometry": {"type": "Point", "coordinates": [-176.1181917753927, 45.53826483272608]}}]}